BEIDOU-3S IGSO-1S       
1 40549U 15019A   26177.69534973 -.00000170  00000+0  00000+0 0  9994
2 40549  49.1760 295.3462 0039048 191.6970 128.6573  1.00249401 41164
NAVSTAR 74 (USA 262)    
1 40730U 15033A   26177.69437856 -.00000031  00000+0  00000+0 0  9990
2 40730  53.9750 266.6943 0115145  30.2371 330.4696  2.00555882 80187
BEIDOU-3S M2S           
1 40748U 15037A   26176.91454553 -.00000104  00000+0  00000+0 0  9991
2 40748  54.8627 301.7450 0008580 258.5842 101.3122  1.86232105 74281
BEIDOU-3S M1S           
1 40749U 15037B   26177.12087142 -.00000103  00000+0  00000+0 0  9991
2 40749  54.8590 301.7263 0003237  62.2861 297.7397  1.86255003 74295
GSAT0206 (GALILEO 10)   
1 40890U 15045B   26175.49628500  .00000051  00000+0  00000+0 0  9995
2 40890  54.9433 221.4024 0001685 336.0482  24.0274  1.70473861 67168
BEIDOU-3S IGSO-2S       
1 40938U 15053A   26177.68456693 -.00000116  00000+0  00000+0 0  9995
2 40938  49.2053 258.6677 0065522 192.9538 164.2588  1.00257789 39440
NAVSTAR 75 (USA 265)    
1 41019U 15062A   26177.25150271 -.00000083  00000+0  00000+0 0  9995
2 41019  56.9655  30.4619 0112170 231.0060 128.0428  2.00567152 78019
GSAT-15                 
1 41028U 15065A   26177.89797949 -.00000246  00000+0  00000+0 0  9998
2 41028   0.0489 263.6700 0004600 172.9547 255.1844  1.00271072 38894
GSAT0209 (GALILEO 12)   
1 41174U 15079A   26176.25098990 -.00000038  00000+0  00000+0 0  9993
2 41174  55.8320 101.0407 0005047 349.0522  10.9102  1.70473764 64918
GSAT0208 (GALILEO 11)   
1 41175U 15079B   26177.05790246 -.00000039  00000+0  00000+0 0  9997
2 41175  55.8311 101.0154 0004595 354.0123   5.9555  1.70473681 65340
IRNSS-1E                
1 41241U 16003A   26176.59836588 -.00000319  00000+0  00000+0 0  9998
2 41241  33.2517  59.6282 0019062 179.1130   2.2203  1.00274592 38164
NAVSTAR 76 (USA 266)    
1 41328U 16007A   26177.34308400 -.00000066  00000+0  00000+0 0  9998
2 41328  55.5293  89.0967 0095637 247.1706 111.8201  2.00551441 76026
COSMOS 2514 [GLONASS-M] 
1 41330U 16008A   26177.67036023 -.00000084  00000+0  00000+0 0  9997
2 41330  65.0155 312.6811 0011642 199.0103 160.9356  2.13102793 80820
BEIDOU-2 IGSO-6         
1 41434U 16021A   26177.11016981 -.00000145  00000+0  00000+0 0  9995
2 41434  60.2385  37.9495 0057558 231.0163 137.2672  1.00258926 37578
IRNSS-1G                
1 41469U 16027A   26177.84157144 -.00000327  00000+0  00000+0 0  9998
2 41469   5.2185  97.2514 0005784   4.3323 245.6773  1.00282495 37278
GSAT0211 (GALILEO 14)   
1 41549U 16030A   26174.83541472  .00000046  00000+0  00000+0 0  9995
2 41549  55.0937 221.5119 0003056 321.3377  38.7209  1.70474023 62785
GSAT0210 (GALILEO 13)   
1 41550U 16030B   26176.26585571  .00000056  00000+0  00000+0 0  9995
2 41550  55.0912 221.4705 0008659 257.5264 102.4641  1.70473937 62804
BEIDOU-2 G7             
1 41586U 16037A   26177.90135950 -.00000343  00000+0  00000+0 0  9995
2 41586   1.7443  69.4116 0006832   1.3174 279.3340  1.00272392  6984
EUTELSAT 117 WEST B     
1 41589U 16038B   26177.64245443  .00000000  00000+0  00000+0 0  9998
2 41589   0.0052 198.0230 0000280  90.3505 100.6951  1.00269678 36753
GSAT0207 (GALILEO 15)   
1 41859U 16069A   26177.71738502 -.00000038  00000+0  00000+0 0  9995
2 41859  55.5042 100.8225 0005006 333.0982  26.8500  1.70473700 59562
GSAT0212 (GALILEO 16)   
1 41860U 16069B   26176.98423705 -.00000039  00000+0  00000+0 0  9992
2 41860  55.5014 100.8378 0004404  10.9452 349.0377  1.70473828 59806
GSAT0213 (GALILEO 17)   
1 41861U 16069C   26176.17825865 -.00000039  00000+0  00000+0 0  9997
2 41861  55.5032 100.8681 0004629 315.3374  44.5989  1.70474298 59659
GSAT0214 (GALILEO 18)   
1 41862U 16069D   26172.80498560 -.00000023  00000+0  00000+0 0  9995
2 41862  55.5000 100.9540 0003849 321.2487  38.7039  1.70473560 59724
SES-15                  
1 42709U 17026A   26177.72018892  .00000072  00000+0  00000+0 0  9995
2 42709   0.0197 336.5648 0000730 101.7226 326.6485  1.00267078  7524
QZS-2 (MICHIBIKI-2)     
1 42738U 17028A   26177.49072513 -.00000138  00000+0  00000+0 0  9997
2 42738  39.4133 243.0175 0759188 269.3662  80.9134  1.00281441  7714
QZS-3 (MICHIBIKI-3)     
1 42917U 17048A   26177.90465285 -.00000336  00000+0  00000+0 0  9996
2 42917   0.0678 147.8339 0002279 304.0996 275.8116  1.00272025 32354
COSMOS 2522 [GLONASS-M] 
1 42939U 17055A   26175.16181676  .00000104  00000+0  00000+0 0  9995
2 42939  64.0776 191.6387 0008409 235.5259 124.4452  2.13101107 68121
QZS-4 (MICHIBIKI-4)     
1 42965U 17062A   26177.33476632 -.00000355  00000+0  00000+0 0  9991
2 42965  40.1041 343.3683 0746721 268.2556 281.2054  1.00296962 31897
BEIDOU-3 M1             
1 43001U 17069A   26177.26129810 -.00000086  00000+0  00000+0 0  9996
2 43001  56.7000  62.7851 0009931 326.5159  33.4640  1.86231403 58775
BEIDOU-3 M2             
1 43002U 17069B   26177.20007009 -.00000086  00000+0  00000+0 0  9996
2 43002  56.6993  62.8231 0008922 352.8542   7.1754  1.86230727 58767
GSAT0215 (GALILEO 19)   
1 43055U 17079A   26177.40088376  .00000063  00000+0  00000+0 0  9997
2 43055  55.0715 221.2530 0003507 265.2827  94.7697  1.70474651 53144
